{
"type": "FeatureCollection",
"name": "airport_sjc_buildings",
"crs": { "type": "name", "properties": { "name": "urn:ogc:def:crs:EPSG::32723" } },
"features": [
{ "type": "Feature", "properties": { "height": 25.21319873484331 }, "geometry": { "type": "MultiPolygon", "coordinates": [ [ [ [ 275.296678874932695, 1056.827456848695874 ], [ 269.972252352454234, 1050.540383080951869 ], [ 242.124226481420919, 1073.846498422324657 ], [ 247.448650395963341, 1080.133582105860114 ], [ 275.296678874932695, 1056.827456848695874 ] ] ], [ [ [ 298.084930227720179, 1084.27639826387167 ], [ 286.029639439599123, 1069.025665299035609 ], [ 258.632776271842886, 1090.452329764142632 ], [ 270.688123972387984, 1105.692013759166002 ], [ 298.084930227720179, 1084.27639826387167 ] ] ] ] } },
{ "type": "Feature", "properties": { "height": 17.730920019515395 }, "geometry": { "type": "Polygon", "coordinates": [ [ [ 893.353209495660849, 994.900618098676205 ], [ 829.636991518957075, 928.936629538424313 ], [ 851.699562399706338, 907.864953983575106 ], [ 915.415780220821034, 973.828849339857697 ], [ 893.353209495660849, 994.900618098676205 ] ] ] } },
{ "type": "Feature", "properties": { "height": 14.697413758043679 }, "geometry": { "type": "Polygon", "coordinates": [ [ [ 507.507118489302229, 698.613274306058884 ], [ 579.952283849474043, 627.586908662691712 ], [ 626.991966136847623, 675.539589180611074 ], [ 555.095785432378761, 748.894457742571831 ], [ 507.507118489302229, 698.613274306058884 ] ] ] } },
{ "type": "Feature", "properties": { "height": 11.588748288144053 }, "geometry": { "type": "Polygon", "coordinates": [ [ [ 481.25170648121275, 808.962665422819555 ], [ 541.216585834685247, 751.347586364485323 ], [ 537.168518203718122, 747.23819356970489 ], [ 539.23522772960132, 745.545425571501255 ], [ 501.395321661198977, 707.777488140389323 ], [ 499.820462964824401, 709.35138052329421 ], [ 494.978405845351517, 704.550831099972129 ], [ 476.611355202912819, 721.84636989608407 ], [ 473.784304619533941, 718.895641735754907 ], [ 470.049064872320741, 722.427451679483056 ], [ 462.515152955194935, 729.833910535089672 ], [ 459.079127369157504, 732.946774155832827 ], [ 459.800728670903482, 733.770349452272058 ], [ 461.895946081960574, 735.897444374859333 ], [ 435.18536042002961, 762.521035617217422 ], [ 440.079037926276214, 767.244409682229161 ], [ 437.782745118718594, 769.688667226582766 ], [ 476.054632922518067, 807.082893625833094 ], [ 477.885170362947974, 805.5326629858464 ], [ 481.25170648121275, 808.962665422819555 ] ] ] } },
{ "type": "Feature", "properties": { "height": 21.641644167184594 }, "geometry": { "type": "Polygon", "coordinates": [ [ [ 1057.230435646721162, 129.209699779748917 ], [ 994.802060784073547, 190.654024408198893 ], [ 1025.102166731725447, 221.268354014493525 ], [ 1047.254348598013166, 242.058427001349628 ], [ 1075.414152293233201, 213.980894189327955 ], [ 1053.857880952651612, 192.773656260222197 ], [ 1058.890430569415912, 187.821125507354736 ], [ 1079.964191020815633, 209.302301648072898 ], [ 1109.228086250775959, 181.364072274416685 ], [ 1088.011412389401812, 159.826737346127629 ], [ 1057.230435646721162, 129.209699779748917 ] ] ] } },
{ "type": "Feature", "properties": { "height": 27.515088105509239 }, "geometry": { "type": "Polygon", "coordinates": [ [ [ 987.077474444173276, 291.193380709737539 ], [ 978.75457778701093, 298.872221606783569 ], [ 973.842980641406029, 293.717127261683345 ], [ 951.935066761099733, 314.767727332189679 ], [ 956.918872653099243, 319.823611015453935 ], [ 947.634348608902656, 329.201778489165008 ], [ 942.415347233938519, 324.122360774315894 ], [ 926.823901870578993, 339.38656974863261 ], [ 931.900707083346788, 344.288009044714272 ], [ 929.149797079502605, 347.504662720486522 ], [ 954.839035193028394, 374.050798946991563 ], [ 1012.358949671441223, 317.482368714176118 ], [ 987.077474444173276, 291.193380709737539 ] ] ] } },
{ "type": "Feature", "properties": { "height": 11.938716638668739 }, "geometry": { "type": "Polygon", "coordinates": [ [ [ 14.107090479985345, 1136.858922200277448 ], [ 62.363242141436785, 1090.546353990212083 ], [ 47.940145389351528, 1076.023104808293283 ], [ 0.0, 1122.536799043416977 ], [ 14.107090479985345, 1136.858922200277448 ] ] ] } },
{ "type": "Feature", "properties": { "height": 13.30565807542126 }, "geometry": { "type": "Polygon", "coordinates": [ [ [ 674.588747856672853, 456.527318073436618 ], [ 577.161225300864317, 552.937090961262584 ], [ 692.670475863560569, 667.192905481904745 ], [ 693.874540488119237, 666.026446588337421 ], [ 790.631384223233908, 572.280198896303773 ], [ 674.588747856672853, 456.527318073436618 ] ] ] } },
{ "type": "Feature", "properties": { "height": 11.034873346471725 }, "geometry": { "type": "Polygon", "coordinates": [ [ [ 261.447001308843028, 928.614098940044641 ], [ 222.860308202856686, 959.661768057383597 ], [ 263.442141301231459, 1009.536837257444859 ], [ 302.028804634814151, 978.500134298577905 ], [ 300.06830038985936, 976.085958197712898 ], [ 261.447001308843028, 928.614098940044641 ] ] ] } },
{ "type": "Feature", "properties": { "height": 16.210598637153883 }, "geometry": { "type": "Polygon", "coordinates": [ [ [ 942.145543957303744, 245.003557616844773 ], [ 882.410343404044397, 304.182593900710344 ], [ 915.70240788650699, 337.549479758366942 ], [ 975.299037952325307, 279.310575183480978 ], [ 942.145543957303744, 245.003557616844773 ] ] ] } },
{ "type": "Feature", "properties": { "height": 17.909310977546248 }, "geometry": { "type": "Polygon", "coordinates": [ [ [ 1021.53311350743752, 285.163289963267744 ], [ 1051.134658026974648, 255.533213406801224 ], [ 965.450980989786331, 170.895334582775831 ], [ 935.839188808167819, 200.525183047167957 ], [ 1021.53311350743752, 285.163289963267744 ] ] ] } },
{ "type": "Feature", "properties": { "height": 15.121677747193939 }, "geometry": { "type": "Polygon", "coordinates": [ [ [ 401.197901130421087, 911.807331943884492 ], [ 361.522263912658673, 950.532537704333663 ], [ 364.709473403461743, 954.86936754360795 ], [ 388.241413871874101, 979.421845149248838 ], [ 429.492385837598704, 940.772346454672515 ], [ 404.604124706820585, 915.447946008294821 ], [ 401.197901130421087, 911.807331943884492 ] ] ] } },
{ "type": "Feature", "properties": { "height": 19.593781649615778 }, "geometry": { "type": "Polygon", "coordinates": [ [ [ 163.463983590831049, 1007.358903064392507 ], [ 124.896764414093923, 1040.222181190736592 ], [ 129.49682552635204, 1046.139635510742664 ], [ 164.956429531855974, 1091.854786021634936 ], [ 173.304363698931411, 1085.272607141174376 ], [ 179.915160650736652, 1080.008673189207911 ], [ 205.021257305634208, 1058.380306485109031 ], [ 163.463983590831049, 1007.358903064392507 ] ] ] } },
{ "type": "Feature", "properties": { "height": 21.445170691460895 }, "geometry": { "type": "Polygon", "coordinates": [ [ [ 885.256009042728692, 364.627857742831111 ], [ 756.45918334799353, 492.174875339493155 ], [ 795.875786114193033, 533.250806927680969 ], [ 926.670902649289928, 405.18381336145103 ], [ 885.256009042728692, 364.627857742831111 ] ] ] } },
{ "type": "Feature", "properties": { "height": 24.311075961580027 }, "geometry": { "type": "Polygon", "coordinates": [ [ [ 1047.122226987034082, 287.041296395473182 ], [ 1017.26880716352025, 315.994517831131816 ], [ 1061.484845370519906, 362.202017409726977 ], [ 1064.110437146387994, 364.62001242954284 ], [ 1094.1765087658423, 334.306152444332838 ], [ 1090.066566767171025, 330.274045930244029 ], [ 1047.122226987034082, 287.041296395473182 ] ] ] } },
{ "type": "Feature", "properties": { "height": 12.151667428525371 }, "geometry": { "type": "Polygon", "coordinates": [ [ [ 683.044125826272648, 1066.298100000247359 ], [ 659.932482748175971, 1076.092507605440915 ], [ 637.292729572160169, 1085.679314566776156 ], [ 652.512978217448108, 1121.209390735253692 ], [ 698.264394623693079, 1101.839198385365307 ], [ 683.044125826272648, 1066.298100000247359 ] ] ] } },
{ "type": "Feature", "properties": { "height": 17.961080473898363 }, "geometry": { "type": "Polygon", "coordinates": [ [ [ 981.384137933782768, 841.902153272181749 ], [ 970.549981043615844, 829.449216946959496 ], [ 908.776767723378725, 892.037487315945327 ], [ 920.256671756331343, 902.567832232452929 ], [ 981.384137933782768, 841.902153272181749 ] ] ] } },
{ "type": "Feature", "properties": { "height": 18.381506866521356 }, "geometry": { "type": "Polygon", "coordinates": [ [ [ 506.675679842883255, 940.665500715374947 ], [ 551.975407753023319, 895.584971880540252 ], [ 525.796361674088985, 868.769542213529348 ], [ 511.591679083590861, 881.229392511770129 ], [ 520.536803720635362, 889.508577815257013 ], [ 488.268296877096873, 921.579731971956789 ], [ 506.675679842883255, 940.665500715374947 ] ] ] } },
{ "type": "Feature", "properties": { "height": 18.338518208833044 }, "geometry": { "type": "Polygon", "coordinates": [ [ [ 996.198242841521278, 406.734362354502082 ], [ 982.527007130149286, 393.080031329765916 ], [ 939.887043488270137, 435.265671450644732 ], [ 949.499567180115264, 444.877126667648554 ], [ 953.54805038694758, 448.919980679638684 ], [ 996.198242841521278, 406.734362354502082 ] ] ] } },
{ "type": "Feature", "properties": { "height": 28.821673595938378 }, "geometry": { "type": "Polygon", "coordinates": [ [ [ 173.304363698931411, 1085.272607141174376 ], [ 164.880460515327286, 1075.390939231961966 ], [ 171.244697889953386, 1070.29161499068141 ], [ 179.915160650736652, 1080.008673189207911 ], [ 173.304363698931411, 1085.272607141174376 ] ] ] } },
{ "type": "Feature", "properties": { "height": 13.264416277278725 }, "geometry": { "type": "Polygon", "coordinates": [ [ [ 111.990485090995207, 1133.544936207123101 ], [ 88.032717432477511, 1104.926221804693341 ], [ 99.602401480544358, 1095.163594494573772 ], [ 123.696026299148798, 1123.30702256411314 ], [ 111.990485090995207, 1133.544936207123101 ] ] ] } },
{ "type": "Feature", "properties": { "height": 25.033210401139996 }, "geometry": { "type": "Polygon", "coordinates": [ [ [ 748.547193141188473, 1082.717090939171612 ], [ 761.133274882973637, 1089.611560591496527 ], [ 770.428993650653865, 1074.974583445116878 ], [ 759.549125052406453, 1068.52199730463326 ], [ 756.747085395385511, 1071.705106045119464 ], [ 754.829737609659787, 1070.630904097110033 ], [ 748.547193141188473, 1082.717090939171612 ] ] ] } },
{ "type": "Feature", "properties": { "height": 26.578059309008154 }, "geometry": { "type": "Polygon", "coordinates": [ [ [ 758.94486727565527, 622.08087764121592 ], [ 783.884247181122191, 649.154294496402144 ], [ 827.694452896015719, 608.238141214475036 ], [ 799.522557540680282, 581.023906229995191 ], [ 758.94486727565527, 622.08087764121592 ] ] ] } },
{ "type": "Feature", "properties": { "height": 14.083803282683668 }, "geometry": { "type": "Polygon", "coordinates": [ [ [ 941.906909682147671, 453.634197125211358 ], [ 948.030827009410132, 459.693246996961534 ], [ 929.081840908445884, 478.646614834666252 ], [ 922.957857517234515, 472.598628440871835 ], [ 941.906909682147671, 453.634197125211358 ] ] ] } },
{ "type": "Feature", "properties": { "height": 26.811402725911069 }, "geometry": { "type": "Polygon", "coordinates": [ [ [ 845.119312081602402, 561.541691079735756 ], [ 838.183001334720757, 554.437075844034553 ], [ 826.081160426023416, 566.101409705355763 ], [ 833.007239559665322, 573.205970056355 ], [ 845.119312081602402, 561.541691079735756 ] ] ] } },
{ "type": "Feature", "properties": { "height": 10.900607040793666 }, "geometry": { "type": "Polygon", "coordinates": [ [ [ 921.331848869449459, 411.773080993443727 ], [ 938.755980938614812, 429.269295962527394 ], [ 982.58867442474002, 386.094256108626723 ], [ 987.233816482243128, 380.918031616136432 ], [ 971.772216053796001, 362.027364445850253 ], [ 957.693038887227885, 375.905512594617903 ], [ 953.195506636868231, 380.340806199237704 ], [ 921.331848869449459, 411.773080993443727 ] ] ] } },
{ "type": "Feature", "properties": { "height": 28.948738351914905 }, "geometry": { "type": "Polygon", "coordinates": [ [ [ 971.772216053796001, 362.027364445850253 ], [ 987.233816482243128, 380.918031616136432 ], [ 1011.13123784417985, 355.6387123093009 ], [ 1012.048115308512934, 354.581251131370664 ], [ 995.618915719212964, 338.40850084554404 ], [ 971.772216053796001, 362.027364445850253 ] ] ] } },
{ "type": "Feature", "properties": { "height": 14.831428830781796 }, "geometry": { "type": "Polygon", "coordinates": [ [ [ 987.233816482243128, 380.918031616136432 ], [ 1001.919653136399575, 396.028712845407426 ], [ 1008.31623236235464, 402.698280513286591 ], [ 1032.141702478169464, 377.473861521109939 ], [ 1011.13123784417985, 355.6387123093009 ], [ 987.233816482243128, 380.918031616136432 ] ] ] } },
{ "type": "Feature", "properties": { "height": 27.042950999225653 }, "geometry": { "type": "Polygon", "coordinates": [ [ [ 995.618915719212964, 338.40850084554404 ], [ 1035.031254389905371, 376.77124506700784 ], [ 1039.002977938624099, 379.950043816119432 ], [ 1057.178066000982653, 362.054850313812494 ], [ 1014.964780506386887, 319.778469733893871 ], [ 995.618915719212964, 338.40850084554404 ] ] ] } },
{ "type": "Feature", "properties": { "height": 25.827371136165247 }, "geometry": { "type": "Polygon", "coordinates": [ [ [ 795.154331734753214, 534.132265968248248 ], [ 812.532964318641461, 552.403365327976644 ], [ 855.841788657358848, 511.42881784774363 ], [ 837.561131983587984, 493.429228065535426 ], [ 795.154331734753214, 534.132265968248248 ] ] ] } },
{ "type": "Feature", "properties": { "height": 10.288632801814352 }, "geometry": { "type": "Polygon", "coordinates": [ [ [ 846.349786080303602, 713.539008848369122 ], [ 888.66728737851372, 667.222024032846093 ], [ 827.694452896015719, 608.238141214475036 ], [ 783.884247181122191, 649.154294496402144 ], [ 846.349786080303602, 713.539008848369122 ] ] ] } },
{ "type": "Feature", "properties": { "height": 26.968899184100874 }, "geometry": { "type": "Polygon", "coordinates": [ [ [ 756.459052417660132, 492.19701764639467 ], [ 744.50727777753491, 480.213362252339721 ], [ 743.066397260990925, 481.633069679141045 ], [ 723.151645213016309, 461.420430849306285 ], [ 719.687348039413337, 465.872840566560626 ], [ 708.981344819767401, 456.055474654771388 ], [ 712.437245460692793, 451.293014483526349 ], [ 709.569670016411692, 448.275661040097475 ], [ 706.680820208741352, 450.583593127317727 ], [ 694.005947962868959, 438.042038286104798 ], [ 694.994933652284089, 436.907521607354283 ], [ 691.950412926380523, 434.398408403620124 ], [ 706.510525499586947, 420.567633022554219 ], [ 709.063665183144622, 423.118122223764658 ], [ 719.675027390476316, 412.607577279210091 ], [ 718.302337741886731, 411.14908454194665 ], [ 725.074762426782399, 404.424435470253229 ], [ 726.631228321581148, 405.95044394955039 ], [ 741.329137060267385, 391.30115728545934 ], [ 739.834388382150792, 389.720157632604241 ], [ 745.802508129971102, 384.042539112269878 ], [ 747.57344475062564, 385.636243094690144 ], [ 803.922718912304845, 329.92524519842118 ], [ 800.994153299601749, 326.841119055636227 ], [ 823.563013565901201, 304.798199810087681 ], [ 827.273756354639772, 307.1119354814291 ], [ 885.235349743859842, 364.660950370132923 ], [ 756.459052417660132, 492.19701764639467 ] ] ] } },
{ "type": "Feature", "properties": { "height": 13.984593562750849 }, "geometry": { "type": "Polygon", "coordinates": [ [ [ 966.560361840878613, 940.318127093836665 ], [ 956.216811613063328, 950.498283294960856 ], [ 982.898254466126673, 977.293737022206187 ], [ 993.231636823620647, 967.102431086823344 ], [ 966.560361840878613, 940.318127093836665 ] ] ] } },
{ "type": "Feature", "properties": { "height": 25.267199157829907 }, "geometry": { "type": "Polygon", "coordinates": [ [ [ 816.081089993182104, 954.586790587753057 ], [ 832.259262848296203, 970.038576822727919 ], [ 835.27581275452394, 966.912079514935613 ], [ 845.756062887783628, 976.916214239783585 ], [ 853.086367524752859, 969.320147429592907 ], [ 826.438179207732901, 943.864303018897772 ], [ 816.081089993182104, 954.586790587753057 ] ] ] } },
{ "type": "Feature", "properties": { "height": 16.790060415883321 }, "geometry": { "type": "Polygon", "coordinates": [ [ [ 241.823035035340581, 895.637055464088917 ], [ 247.346341621829197, 901.161388690583408 ], [ 242.35598564526299, 905.8149792291224 ], [ 250.78681549342582, 914.523063839413226 ], [ 256.130061591917183, 909.030130932107568 ], [ 264.243248853948899, 917.813819738104939 ], [ 288.119703253556509, 894.694425804540515 ], [ 279.708604139217641, 886.108266890048981 ], [ 284.113614141009748, 881.805474754422903 ], [ 275.549045569845475, 873.218400779180229 ], [ 271.546635768550914, 876.925720111466944 ], [ 266.297354800743051, 871.779457527212799 ], [ 241.823035035340581, 895.637055464088917 ] ] ] } },
{ "type": "Feature", "properties": { "height": 13.871226058581589 }, "geometry": { "type": "Polygon", "coordinates": [ [ [ 178.474518841714598, 995.391314997337759 ], [ 204.367930102278478, 1025.438560847193003 ], [ 221.869354968250263, 1011.005720680579543 ], [ 196.327052504755557, 980.418088169768453 ], [ 178.474518841714598, 995.391314997337759 ] ] ] } },
{ "type": "Feature", "properties": { "height": 19.977217876061282 }, "geometry": { "type": "Polygon", "coordinates": [ [ [ 496.810975669883192, 7.408351262100041 ], [ 502.160883662465494, 12.798717316240072 ], [ 509.750168592203408, 6.344728887081146 ], [ 504.027347885421477, 0.0 ], [ 496.810975669883192, 7.408351262100041 ] ] ] } },
{ "type": "Feature", "properties": { "height": 20.937642482680008 }, "geometry": { "type": "Polygon", "coordinates": [ [ [ 466.605545750004239, 832.026394248008728 ], [ 461.281309254700318, 827.43333482183516 ], [ 452.168195783742703, 837.133302994072437 ], [ 457.286152685177512, 842.001930500380695 ], [ 466.605545750004239, 832.026394248008728 ] ] ] } },
{ "type": "Feature", "properties": { "height": 24.895241053356504 }, "geometry": { "type": "Polygon", "coordinates": [ [ [ 474.404400856932625, 836.888774840161204 ], [ 479.346189396979753, 842.132782087661326 ], [ 481.694433335214853, 839.555967742577195 ], [ 482.914976301311981, 840.792147766798735 ], [ 489.587939981080126, 833.635217705741525 ], [ 483.166987597942352, 827.629576516337693 ], [ 474.404400856932625, 836.888774840161204 ] ] ] } },
{ "type": "Feature", "properties": { "height": 16.461422946974643 }, "geometry": { "type": "Polygon", "coordinates": [ [ [ 461.235334106953815, 852.432609723880887 ], [ 463.554883722332306, 854.693892752751708 ], [ 464.214587440481409, 853.878511757589877 ], [ 469.02697499684291, 858.512819738127291 ], [ 477.723917691153474, 849.972885224968195 ], [ 470.326344820845407, 843.009293541312218 ], [ 470.285679780005012, 842.964766159653664 ], [ 461.235334106953815, 852.432609723880887 ] ] ] } },
{ "type": "Feature", "properties": { "height": 22.616563726514478 }, "geometry": { "type": "Polygon", "coordinates": [ [ [ 457.289227145840414, 875.980518607422709 ], [ 459.35298119019717, 878.240284664556384 ], [ 464.475353523273952, 873.742408819496632 ], [ 462.330334856698755, 871.382517513819039 ], [ 457.289227145840414, 875.980518607422709 ] ] ] } },
{ "type": "Feature", "properties": { "height": 16.956456128026506 }, "geometry": { "type": "Polygon", "coordinates": [ [ [ 446.576529070909601, 865.542926885187626 ], [ 451.41698386601638, 870.620268870145082 ], [ 455.096844927466009, 874.705356601625681 ], [ 456.824547748605255, 873.243090569972992 ], [ 452.80880573450122, 868.857078923843801 ], [ 464.533787439635489, 856.991509144194424 ], [ 459.76252650981769, 852.324228964745998 ], [ 446.576529070909601, 865.542926885187626 ] ] ] } },
{ "type": "Feature", "properties": { "height": 23.05983975398582 }, "geometry": { "type": "Polygon", "coordinates": [ [ [ 752.493195365183055, 626.460273988544941 ], [ 702.188085861736909, 675.552872773259878 ], [ 703.481827047653496, 676.52375085093081 ], [ 700.590182401356287, 679.296671006828547 ], [ 702.70503706834279, 681.567777308635414 ], [ 701.046842123556416, 683.395842507481575 ], [ 727.840236425981857, 711.864262646064162 ], [ 732.742017499520443, 706.578914877958596 ], [ 745.423267565609422, 719.817967416718602 ], [ 741.207806014688686, 724.974519426003098 ], [ 749.389186886197422, 734.367276140488684 ], [ 754.700633604021277, 729.017914401367307 ], [ 760.22104786161799, 735.051326896995306 ], [ 754.704113140818663, 740.543405596166849 ], [ 760.848675085813738, 746.580507934093475 ], [ 766.364366027642973, 741.298778848722577 ], [ 793.441905958869029, 768.473380194045603 ], [ 785.918043803365435, 775.935414329171181 ], [ 808.359771030314732, 798.033963600173593 ], [ 815.266906341596041, 791.044350456446409 ], [ 823.034880526480265, 799.416038988158107 ], [ 816.133987067907583, 807.081056190654635 ], [ 823.225720770133194, 813.876590779051185 ], [ 830.471685638534836, 806.689684808254242 ], [ 833.677009701961651, 809.709005231969059 ], [ 826.573833848116919, 816.974257015623152 ], [ 836.392817869549617, 826.310205806046724 ], [ 838.887511806446128, 823.180625825189054 ], [ 841.47189900430385, 825.653771430253983 ], [ 845.344075335597154, 821.447316208854318 ], [ 862.258203749079257, 838.741297800093889 ], [ 858.535747496876866, 841.852559689432383 ], [ 852.187906488776207, 835.57072713598609 ], [ 847.875756187364459, 839.77458561770618 ], [ 854.254489230806939, 846.023387821391225 ], [ 849.485854908416513, 851.287418185733259 ], [ 863.472184155718423, 865.353360217995942 ], [ 862.978305507218465, 865.815448248758912 ], [ 885.566835741861723, 889.088318405672908 ], [ 949.883398990612477, 825.540850372985005 ], [ 912.708564258180559, 789.305805642157793 ], [ 752.493195365183055, 626.460273988544941 ] ] ] } },
{ "type": "Feature", "properties": { "height": 21.941783252811078 }, "geometry": { "type": "Polygon", "coordinates": [ [ [ 930.423438146128319, 787.085324015468359 ], [ 956.949614820594434, 814.123499825596809 ], [ 970.420630766893737, 799.333891253918409 ], [ 965.845274856546894, 794.391145663335919 ], [ 968.958615349780302, 790.456972172483802 ], [ 968.156193703296594, 787.71757129766047 ], [ 960.174845072440803, 779.078985963016748 ], [ 963.558893858396914, 776.087490567937493 ], [ 953.12173256254755, 765.729399341158569 ], [ 930.423438146128319, 787.085324015468359 ] ] ] } },
{ "type": "Feature", "properties": { "height": 21.119389908217293 }, "geometry": { "type": "Polygon", "coordinates": [ [ [ 316.644577434693929, 926.174275914207101 ], [ 329.428578454419039, 939.314653413370252 ], [ 335.880475399899296, 933.219343837350607 ], [ 322.617215482168831, 919.799335753545165 ], [ 316.644577434693929, 926.174275914207101 ] ] ] } },
{ "type": "Feature", "properties": { "height": 20.021110535396708 }, "geometry": { "type": "Polygon", "coordinates": [ [ [ 276.748579729057383, 914.134905406273901 ], [ 282.14066692738561, 919.359513007104397 ], [ 285.456489227421116, 915.825254580006003 ], [ 290.560505189932883, 921.31386392377317 ], [ 299.328818632115144, 912.840882515534759 ], [ 288.284992860048078, 901.316194370388985 ], [ 276.748579729057383, 914.134905406273901 ] ] ] } },
{ "type": "Feature", "properties": { "height": 17.465143652942427 }, "geometry": { "type": "Polygon", "coordinates": [ [ [ 448.164638833142817, 904.85633154399693 ], [ 448.568663083482534, 905.744452062994242 ], [ 445.911407813662663, 908.662646120414138 ], [ 460.172244889487047, 922.974181631579995 ], [ 462.273557731765322, 920.628407606855035 ], [ 465.405767025076784, 923.890949180349708 ], [ 463.479842780157924, 925.994190039113164 ], [ 477.831422584946267, 940.538747699931264 ], [ 489.29165327118244, 928.4612285066396 ], [ 456.762584093259647, 895.762243723496795 ], [ 448.164638833142817, 904.85633154399693 ] ] ] } },
{ "type": "Feature", "properties": { "height": 14.281189089436845 }, "geometry": { "type": "Polygon", "coordinates": [ [ [ 397.597456790274009, 794.372211897745728 ], [ 400.160713002551347, 796.944955756887794 ], [ 400.146714253642131, 799.303112133406103 ], [ 398.182957193464972, 800.88575728610158 ], [ 395.645840043202043, 800.804266354069114 ], [ 393.764900551352184, 798.778078282251954 ], [ 393.266450953262392, 796.560809699818492 ], [ 395.46823638828937, 794.525644849985838 ], [ 397.597456790274009, 794.372211897745728 ] ] ] } },
{ "type": "Feature", "properties": { "height": 26.99113204435195 }, "geometry": { "type": "Polygon", "coordinates": [ [ [ 418.600779471220449, 782.893902450799942 ], [ 411.224323130154517, 775.830759892240167 ], [ 388.873482851893641, 797.121520973742008 ], [ 396.785724208457395, 805.283938294276595 ], [ 418.600779471220449, 782.893902450799942 ] ] ] } }
]
}
