{
  "type": "FeatureCollection",
  "features": [
    {
      "type": "Feature",
      "geometry": {
        "type": "LineString",
        "coordinates": [
          [
            -570.6286777593195,
            1366.8720356738195
          ],
          [
            -543.6491444993299,
            1340.251771936193
          ],
          [
            -106.03056169132469,
            908.5220785159618
          ],
          [
            -26.817848003469408,
            830.6413563471287
          ],
          [
            32.776456378633156,
            772.0406711678952
          ],
          [
            189.41758073191158,
            618.0271968729794
          ],
          [
            627.8765138211311,
            185.7950293701142
          ],
          [
            691.337974800379,
            122.94114461913705
          ],
          [
            734.7453655769932,
            80.72753452789038
          ],
          [
            1211.4765773281688,
            -389.325245664455
          ],
          [
            1238.223492330988,
            -415.75063429772854
          ],
          [
            1266.0270381659502,
            -442.6680731680244
          ],
          [
            1322.117858365178,
            -498.78099157847464
          ],
          [
            1410.351168243098,
            -585.6059965435416
          ],
          [
            1517.9607533474336,
            -691.5158836841583
          ],
          [
            1537.6172264320776,
            -711.1079435925931
          ],
          [
            1549.6888755909167,
            -723.1272796047851
          ]
        ]
      },
      "properties": {
        "ref": "16-34",
        "width": "45"
      }
    }
  ]
}