{
  "type": "FeatureCollection",
  "features": [
    {
      "type": "Feature",
      "geometry": {
        "type": "Point",
        "coordinates": [
          75.0,
          75.0
        ]
      },
      "properties": {
        "id": 1,
        "height": 27.04708772508313,
        "name": "Sensor_1"
      }
    },
    {
      "type": "Feature",
      "geometry": {
        "type": "Point",
        "coordinates": [
          75.0,
          225.0
        ]
      },
      "properties": {
        "id": 2,
        "height": 26.425496698206317,
        "name": "Sensor_2"
      }
    },
    {
      "type": "Feature",
      "geometry": {
        "type": "Point",
        "coordinates": [
          75.0,
          375.0
        ]
      },
      "properties": {
        "id": 3,
        "height": 25.850605671082203,
        "name": "Sensor_3"
      }
    },
    {
      "type": "Feature",
      "geometry": {
        "type": "Point",
        "coordinates": [
          75.0,
          525.0
        ]
      },
      "properties": {
        "id": 4,
        "height": 28.612647775680852,
        "name": "Sensor_4"
      }
    },
    {
      "type": "Feature",
      "geometry": {
        "type": "Point",
        "coordinates": [
          75.0,
          675.0
        ]
      },
      "properties": {
        "id": 5,
        "height": 34.05178578574271,
        "name": "Sensor_5"
      }
    },
    {
      "type": "Feature",
      "geometry": {
        "type": "Point",
        "coordinates": [
          75.0,
          825.0
        ]
      },
      "properties": {
        "id": 6,
        "height": 34.53164684413173,
        "name": "Sensor_6"
      }
    },
    {
      "type": "Feature",
      "geometry": {
        "type": "Point",
        "coordinates": [
          75.0,
          975.0
        ]
      },
      "properties": {
        "id": 7,
        "height": 26.912450916636026,
        "name": "Sensor_7"
      }
    },
    {
      "type": "Feature",
      "geometry": {
        "type": "Point",
        "coordinates": [
          75.0,
          1125.0
        ]
      },
      "properties": {
        "id": 8,
        "height": 32.69348099894232,
        "name": "Sensor_8"
      }
    },
    {
      "type": "Feature",
      "geometry": {
        "type": "Point",
        "coordinates": [
          225.0,
          75.0
        ]
      },
      "properties": {
        "id": 9,
        "height": 33.34770964089581,
        "name": "Sensor_9"
      }
    },
    {
      "type": "Feature",
      "geometry": {
        "type": "Point",
        "coordinates": [
          225.0,
          225.0
        ]
      },
      "properties": {
        "id": 10,
        "height": 28.112727558795775,
        "name": "Sensor_10"
      }
    },
    {
      "type": "Feature",
      "geometry": {
        "type": "Point",
        "coordinates": [
          225.0,
          375.0
        ]
      },
      "properties": {
        "id": 11,
        "height": 25.788565997289975,
        "name": "Sensor_11"
      }
    },
    {
      "type": "Feature",
      "geometry": {
        "type": "Point",
        "coordinates": [
          225.0,
          675.0
        ]
      },
      "properties": {
        "id": 12,
        "height": 33.84008500123114,
        "name": "Sensor_12"
      }
    },
    {
      "type": "Feature",
      "geometry": {
        "type": "Point",
        "coordinates": [
          225.0,
          825.0
        ]
      },
      "properties": {
        "id": 13,
        "height": 25.273687851283714,
        "name": "Sensor_13"
      }
    },
    {
      "type": "Feature",
      "geometry": {
        "type": "Point",
        "coordinates": [
          225.0,
          975.0
        ]
      },
      "properties": {
        "id": 14,
        "height": 34.518137565431,
        "name": "Sensor_14"
      }
    },
    {
      "type": "Feature",
      "geometry": {
        "type": "Point",
        "coordinates": [
          225.0,
          1125.0
        ]
      },
      "properties": {
        "id": 15,
        "height": 26.112720448756978,
        "name": "Sensor_15"
      }
    },
    {
      "type": "Feature",
      "geometry": {
        "type": "Point",
        "coordinates": [
          375.0,
          225.0
        ]
      },
      "properties": {
        "id": 16,
        "height": 34.90696504095757,
        "name": "Sensor_16"
      }
    },
    {
      "type": "Feature",
      "geometry": {
        "type": "Point",
        "coordinates": [
          375.0,
          375.0
        ]
      },
      "properties": {
        "id": 17,
        "height": 29.69679576077781,
        "name": "Sensor_17"
      }
    },
    {
      "type": "Feature",
      "geometry": {
        "type": "Point",
        "coordinates": [
          375.0,
          525.0
        ]
      },
      "properties": {
        "id": 18,
        "height": 27.058558849805898,
        "name": "Sensor_18"
      }
    },
    {
      "type": "Feature",
      "geometry": {
        "type": "Point",
        "coordinates": [
          375.0,
          675.0
        ]
      },
      "properties": {
        "id": 19,
        "height": 29.976889060480254,
        "name": "Sensor_19"
      }
    },
    {
      "type": "Feature",
      "geometry": {
        "type": "Point",
        "coordinates": [
          375.0,
          825.0
        ]
      },
      "properties": {
        "id": 20,
        "height": 32.25305841050715,
        "name": "Sensor_20"
      }
    },
    {
      "type": "Feature",
      "geometry": {
        "type": "Point",
        "coordinates": [
          375.0,
          975.0
        ]
      },
      "properties": {
        "id": 21,
        "height": 26.70009944108676,
        "name": "Sensor_21"
      }
    },
    {
      "type": "Feature",
      "geometry": {
        "type": "Point",
        "coordinates": [
          375.0,
          1125.0
        ]
      },
      "properties": {
        "id": 22,
        "height": 31.377469980996672,
        "name": "Sensor_22"
      }
    },
    {
      "type": "Feature",
      "geometry": {
        "type": "Point",
        "coordinates": [
          525.0,
          225.0
        ]
      },
      "properties": {
        "id": 23,
        "height": 33.961519722780366,
        "name": "Sensor_23"
      }
    },
    {
      "type": "Feature",
      "geometry": {
        "type": "Point",
        "coordinates": [
          525.0,
          375.0
        ]
      },
      "properties": {
        "id": 24,
        "height": 30.116296207907094,
        "name": "Sensor_24"
      }
    },
    {
      "type": "Feature",
      "geometry": {
        "type": "Point",
        "coordinates": [
          525.0,
          525.0
        ]
      },
      "properties": {
        "id": 25,
        "height": 34.682738081839375,
        "name": "Sensor_25"
      }
    },
    {
      "type": "Feature",
      "geometry": {
        "type": "Point",
        "coordinates": [
          525.0,
          675.0
        ]
      },
      "properties": {
        "id": 26,
        "height": 32.3694412402424,
        "name": "Sensor_26"
      }
    },
    {
      "type": "Feature",
      "geometry": {
        "type": "Point",
        "coordinates": [
          525.0,
          825.0
        ]
      },
      "properties": {
        "id": 27,
        "height": 34.31664890576089,
        "name": "Sensor_27"
      }
    },
    {
      "type": "Feature",
      "geometry": {
        "type": "Point",
        "coordinates": [
          525.0,
          975.0
        ]
      },
      "properties": {
        "id": 28,
        "height": 31.22437956768064,
        "name": "Sensor_28"
      }
    },
    {
      "type": "Feature",
      "geometry": {
        "type": "Point",
        "coordinates": [
          525.0,
          1125.0
        ]
      },
      "properties": {
        "id": 29,
        "height": 25.468241278671286,
        "name": "Sensor_29"
      }
    },
    {
      "type": "Feature",
      "geometry": {
        "type": "Point",
        "coordinates": [
          675.0,
          75.0
        ]
      },
      "properties": {
        "id": 30,
        "height": 25.851441375577593,
        "name": "Sensor_30"
      }
    },
    {
      "type": "Feature",
      "geometry": {
        "type": "Point",
        "coordinates": [
          675.0,
          225.0
        ]
      },
      "properties": {
        "id": 31,
        "height": 33.71263315130453,
        "name": "Sensor_31"
      }
    },
    {
      "type": "Feature",
      "geometry": {
        "type": "Point",
        "coordinates": [
          675.0,
          375.0
        ]
      },
      "properties": {
        "id": 32,
        "height": 27.155737038550875,
        "name": "Sensor_32"
      }
    },
    {
      "type": "Feature",
      "geometry": {
        "type": "Point",
        "coordinates": [
          675.0,
          675.0
        ]
      },
      "properties": {
        "id": 33,
        "height": 31.719870802114993,
        "name": "Sensor_33"
      }
    },
    {
      "type": "Feature",
      "geometry": {
        "type": "Point",
        "coordinates": [
          675.0,
          825.0
        ]
      },
      "properties": {
        "id": 34,
        "height": 33.780872857881945,
        "name": "Sensor_34"
      }
    },
    {
      "type": "Feature",
      "geometry": {
        "type": "Point",
        "coordinates": [
          675.0,
          975.0
        ]
      },
      "properties": {
        "id": 35,
        "height": 28.564735098445837,
        "name": "Sensor_35"
      }
    },
    {
      "type": "Feature",
      "geometry": {
        "type": "Point",
        "coordinates": [
          675.0,
          1125.0
        ]
      },
      "properties": {
        "id": 36,
        "height": 30.304504397108666,
        "name": "Sensor_36"
      }
    },
    {
      "type": "Feature",
      "geometry": {
        "type": "Point",
        "coordinates": [
          825.0,
          75.0
        ]
      },
      "properties": {
        "id": 37,
        "height": 26.34823910107557,
        "name": "Sensor_37"
      }
    },
    {
      "type": "Feature",
      "geometry": {
        "type": "Point",
        "coordinates": [
          825.0,
          225.0
        ]
      },
      "properties": {
        "id": 38,
        "height": 33.91670569358169,
        "name": "Sensor_38"
      }
    },
    {
      "type": "Feature",
      "geometry": {
        "type": "Point",
        "coordinates": [
          825.0,
          375.0
        ]
      },
      "properties": {
        "id": 39,
        "height": 34.53418514374043,
        "name": "Sensor_39"
      }
    },
    {
      "type": "Feature",
      "geometry": {
        "type": "Point",
        "coordinates": [
          825.0,
          525.0
        ]
      },
      "properties": {
        "id": 40,
        "height": 26.20296962904423,
        "name": "Sensor_40"
      }
    },
    {
      "type": "Feature",
      "geometry": {
        "type": "Point",
        "coordinates": [
          825.0,
          675.0
        ]
      },
      "properties": {
        "id": 41,
        "height": 29.668577121528934,
        "name": "Sensor_41"
      }
    },
    {
      "type": "Feature",
      "geometry": {
        "type": "Point",
        "coordinates": [
          825.0,
          825.0
        ]
      },
      "properties": {
        "id": 42,
        "height": 27.80309085639909,
        "name": "Sensor_42"
      }
    },
    {
      "type": "Feature",
      "geometry": {
        "type": "Point",
        "coordinates": [
          975.0,
          75.0
        ]
      },
      "properties": {
        "id": 43,
        "height": 26.67868565914502,
        "name": "Sensor_43"
      }
    },
    {
      "type": "Feature",
      "geometry": {
        "type": "Point",
        "coordinates": [
          975.0,
          225.0
        ]
      },
      "properties": {
        "id": 44,
        "height": 30.833627946911683,
        "name": "Sensor_44"
      }
    },
    {
      "type": "Feature",
      "geometry": {
        "type": "Point",
        "coordinates": [
          975.0,
          375.0
        ]
      },
      "properties": {
        "id": 45,
        "height": 32.02960380193693,
        "name": "Sensor_45"
      }
    },
    {
      "type": "Feature",
      "geometry": {
        "type": "Point",
        "coordinates": [
          975.0,
          525.0
        ]
      },
      "properties": {
        "id": 46,
        "height": 30.399856308214382,
        "name": "Sensor_46"
      }
    },
    {
      "type": "Feature",
      "geometry": {
        "type": "Point",
        "coordinates": [
          975.0,
          675.0
        ]
      },
      "properties": {
        "id": 47,
        "height": 28.5635824352158,
        "name": "Sensor_47"
      }
    },
    {
      "type": "Feature",
      "geometry": {
        "type": "Point",
        "coordinates": [
          975.0,
          825.0
        ]
      },
      "properties": {
        "id": 48,
        "height": 33.140919331373794,
        "name": "Sensor_48"
      }
    },
    {
      "type": "Feature",
      "geometry": {
        "type": "Point",
        "coordinates": [
          975.0,
          975.0
        ]
      },
      "properties": {
        "id": 49,
        "height": 28.782158435638884,
        "name": "Sensor_49"
      }
    },
    {
      "type": "Feature",
      "geometry": {
        "type": "Point",
        "coordinates": [
          1125.0,
          75.0
        ]
      },
      "properties": {
        "id": 50,
        "height": 32.426769701739,
        "name": "Sensor_50"
      }
    },
    {
      "type": "Feature",
      "geometry": {
        "type": "Point",
        "coordinates": [
          1125.0,
          225.0
        ]
      },
      "properties": {
        "id": 51,
        "height": 34.532417817125115,
        "name": "Sensor_51"
      }
    },
    {
      "type": "Feature",
      "geometry": {
        "type": "Point",
        "coordinates": [
          1125.0,
          375.0
        ]
      },
      "properties": {
        "id": 52,
        "height": 26.835100259359056,
        "name": "Sensor_52"
      }
    },
    {
      "type": "Feature",
      "geometry": {
        "type": "Point",
        "coordinates": [
          1125.0,
          525.0
        ]
      },
      "properties": {
        "id": 53,
        "height": 31.36960657662789,
        "name": "Sensor_53"
      }
    },
    {
      "type": "Feature",
      "geometry": {
        "type": "Point",
        "coordinates": [
          1125.0,
          675.0
        ]
      },
      "properties": {
        "id": 54,
        "height": 30.74214659927579,
        "name": "Sensor_54"
      }
    },
    {
      "type": "Feature",
      "geometry": {
        "type": "Point",
        "coordinates": [
          1125.0,
          825.0
        ]
      },
      "properties": {
        "id": 55,
        "height": 33.36155188020277,
        "name": "Sensor_55"
      }
    },
    {
      "type": "Feature",
      "geometry": {
        "type": "Point",
        "coordinates": [
          1125.0,
          975.0
        ]
      },
      "properties": {
        "id": 56,
        "height": 27.77089977716544,
        "name": "Sensor_56"
      }
    },
    {
      "type": "Feature",
      "geometry": {
        "type": "Point",
        "coordinates": [
          1125.0,
          1125.0
        ]
      },
      "properties": {
        "id": 57,
        "height": 29.369868382721435,
        "name": "Sensor_57"
      }
    }
  ]
}